NORAD_CAT_ID,OBJECT_NAME,OBJECT_TYPE,EPOCH,MEAN_MOTION,ECCENTRICITY,INCLINATION,RA_OF_ASC_NODE,ARG_OF_PERICENTER,MEAN_ANOMALY,BSTAR,MEAN_MOTION_DOT,MEAN_MOTION_DDOT,TLE_LINE0,TLE_LINE1,TLE_LINE2,SEMIMAJOR_AXIS,PERIOD,APOGEE,PERIGEE,DECAYED
51988.0,STARLINK-3640,PAYLOAD,2024-03-11 04:30:41,15.08839626,0.0001698,53.2166,69.4895,89.6597,270.459,6.4844e-05,7.44e-06,0.0,0 STARLINK-3640,1 51988U 22025AJ  24071.18798180  .00000744  00000-0  64844-4 0  9993,2 51988  53.2166  69.4895 0001698  89.6597 270.4590 15.08839626112194,6917.882,95.438,540.921,538.572,0.0
51988.0,STARLINK-3640,PAYLOAD,2024-03-11 06:06:04,15.08839886,0.0001604,53.2158,69.1915,92.2216,267.896,6.4519e-05,7.39e-06,0.0,0 STARLINK-3640,1 51988U 22025AJ  24071.25422109  .00000739  00000-0  64519-4 0  9999,2 51988  53.2158  69.1915 0001604  92.2216 267.8960 15.08839886111097,6917.881,95.438,540.855,538.636,0.0
51988.0,STARLINK-3640,PAYLOAD,2024-03-12 04:21:26,15.08868121,0.0001775,53.2188,65.0247,98.6792,261.4402,0.00026902,3.999e-05,0.0,0 STARLINK-3640,1 51988U 22025AJ  24072.18155591  .00003999  00000-0  26902-3 0  9994,2 51988  53.2188  65.0247 0001775  98.6792 261.4402 15.08868121112345,6917.794,95.436,540.887,538.432,0.0
51988.0,STARLINK-3640,PAYLOAD,2024-03-12 09:07:35,15.08874208,0.0001815,53.2185,64.1302,98.6442,261.4755,0.0002777,4.138e-05,0.0,0 STARLINK-3640,1 51988U 22025AJ  24072.38026735  .00004138  00000-0  27770-3 0  9993,2 51988  53.2185  64.1302 0001815  98.6442 261.4755 15.08874208111265,6917.776,95.435,540.896,538.385,0.0
51988.0,STARLINK-3640,PAYLOAD,2024-03-13 05:47:38,15.0883538,0.0001288,53.2171,60.2693,93.3456,266.7683,1.569e-05,-3.8e-07,0.0,0 STARLINK-3640,1 51988U 22025AJ  24073.24141707 -.00000038  00000-0  15690-4 0  9991,2 51988  53.2171  60.2693 0001288  93.3456 266.7683 15.08835380112505,6917.895,95.438,540.651,538.868,0.0
51988.0,STARLINK-3640,PAYLOAD,2024-03-14 05:38:25,15.08843162,0.0001302,53.2179,55.81,88.0349,272.0792,-0.00010789,-2.005e-05,0.0,0 STARLINK-3640,1 51988U 22025AJ  24074.23501638 -.00002005  00000-0 -10789-3 0  9994,2 51988  53.2179  55.8100 0001302  88.0349 272.0792 15.08843162111546,6917.871,95.437,540.636,538.835,0.0
51988.0,STARLINK-3640,PAYLOAD,2024-03-15 03:53:49,15.08831161,0.0001287,53.2179,51.6471,86.2343,273.8796,0.00013994,1.939e-05,0.0,0 STARLINK-3640,1 51988U 22025AJ  24075.16238256  .00001939  00000-0  13994-3 0  9994,2 51988  53.2179  51.6471 0001287  86.2343 273.8796 15.08831161112794,6917.907,95.438,540.663,538.882,0.0
51988.0,STARLINK-3640,PAYLOAD,2024-03-15 22:58:27,15.08834337,0.0001377,53.2189,48.0815,96.3505,263.7644,0.00012803,1.75e-05,0.0,0 STARLINK-3640,1 51988U 22025AJ  24075.95726680  .00001750  00000-0  12803-3 0  9993,2 51988  53.2189  48.0815 0001377  96.3505 263.7644 15.08834337111808,6917.898,95.438,540.715,538.81,0.0
51988.0,STARLINK-3640,PAYLOAD,2024-03-16 06:55:23,15.08838981,0.0001452,53.2186,46.5952,96.4832,263.6325,0.00015408,2.165e-05,0.0,0 STARLINK-3640,1 51988U 22025AJ  24076.28846476  .00002165  00000-0  15408-3 0  9991,2 51988  53.2186  46.5952 0001452  96.4832 263.6325 15.08838981112960,6917.884,95.438,540.753,538.744,0.0
51988.0,STARLINK-3640,PAYLOAD,2024-03-17 03:35:24,15.08838072,0.0001554,53.2195,42.7277,105.947,254.1694,8.9204e-05,1.132e-05,0.0,0 STARLINK-3640,1 51988U 22025AJ  24077.14958980  .00001132  00000-0  89204-4 0  9990,2 51988  53.2195  42.7277 0001554 105.9470 254.1694 15.08838072113095,6917.886,95.438,540.826,538.676,0.0
51988.0,STARLINK-3640,PAYLOAD,2024-03-17 06:46:10,15.0884042,0.0001509,53.2195,42.1311,102.6756,257.4405,0.00010266,1.346e-05,0.0,0 STARLINK-3640,1 51988U 22025AJ  24077.28206799  .00001346  00000-0  10266-3 0  9997,2 51988  53.2195  42.1311 0001509 102.6756 257.4405 15.08840420112005,6917.879,95.438,540.788,538.7,0.0
51988.0,STARLINK-3640,PAYLOAD,2024-03-18 05:01:34,15.08842879,0.0001622,53.2202,37.9655,82.6669,277.4508,0.00010898,1.447e-05,0.0,0 STARLINK-3640,1 51988U 22025AJ  24078.20942842  .00001447  00000-0  10898-3 0  9999,2 51988  53.2202  37.9655 0001622  82.6669 277.4508 15.08842879113257,6917.872,95.437,540.859,538.615,0.0
51988.0,STARLINK-3640,PAYLOAD,2024-03-18 06:36:57,15.08844423,0.0001709,53.2207,37.6651,81.6326,278.486,0.00012791,1.748e-05,0.0,0 STARLINK-3640,1 51988U 22025AJ  24078.27566708  .00001748  00000-0  12791-3 0  9997,2 51988  53.2207  37.6651 0001709  81.6326 278.4860 15.08844423112157,6917.867,95.437,540.914,538.55,0.0
51988.0,STARLINK-3640,PAYLOAD,2024-03-19 06:27:44,15.08851099,0.0001858,53.2216,33.2011,69.8831,290.2362,0.00014536,2.027e-05,0.0,0 STARLINK-3640,1 51988U 22025AJ  24079.26926319  .00002027  00000-0  14536-3 0  9995,2 51988  53.2216  33.2011 0001858  69.8831 290.2362 15.08851099113419,6917.846,95.437,540.997,538.426,0.0
51988.0,STARLINK-3640,PAYLOAD,2024-03-20 06:18:31,15.08846425,0.0001654,53.2181,28.7584,71.2374,288.8797,-2.9335e-05,-7.55e-06,0.0,0 STARLINK-3640,1 51988U 22025AJ  24080.26286493 -.00000755  00000-0 -29335-4 0  9991,2 51988  53.2181  28.7584 0001654  71.2374 288.8797 15.08846425113565,6917.861,95.437,540.87,538.582,0.0
51988.0,STARLINK-3640,PAYLOAD,2024-03-21 02:58:32,15.0884721,0.0001212,53.2169,24.8833,103.7055,256.4072,0.00016934,2.409e-05,0.0,0 STARLINK-3640,1 51988U 22025AJ  24081.12398637  .00002409  00000-0  16934-3 0  9997,2 51988  53.2169  24.8833 0001212 103.7055 256.4072 15.08847210112583,6917.858,95.437,540.562,538.885,0.0
51988.0,STARLINK-3640,PAYLOAD,2024-03-21 20:27:47,15.08835201,0.0001066,53.2176,21.6169,69.1557,290.9549,5.9089e-05,6.53e-06,0.0,0 STARLINK-3640,1 51988U 22025AJ  24081.85263651  .00000653  00000-0  59089-4 0  9992,2 51988  53.2176  21.6169 0001066  69.1557 290.9549 15.08835201113802,6917.895,95.438,540.498,539.023,0.0
51988.0,STARLINK-3640,PAYLOAD,2024-03-22 02:49:19,15.08855687,0.0001426,53.2185,20.4262,104.0469,256.0682,0.00029996,4.491e-05,0.0,0 STARLINK-3640,1 51988U 22025AJ  24082.11758680  .00004491  00000-0  29996-3 0  9990,2 51988  53.2185  20.4262 0001426 104.0469 256.0682 15.08855687113849,6917.832,95.437,540.684,538.711,0.0
51988.0,STARLINK-3640,PAYLOAD,2024-03-22 20:18:34,15.08844113,0.0001265,53.2186,17.1558,101.0771,259.0363,8.7154e-05,1.1e-05,0.0,0 STARLINK-3640,1 51988U 22025AJ  24082.84623050  .00001100  00000-0  87154-4 0  9997,2 51988  53.2186  17.1558 0001265 101.0771 259.0363 15.08844113113958,6917.868,95.437,540.608,538.858,0.0
51988.0,STARLINK-3640,PAYLOAD,2024-03-23 04:15:29,15.08859066,0.0001409,53.2198,15.6697,102.3801,257.7349,0.00021999,3.217e-05,0.0,0 STARLINK-3640,1 51988U 22025AJ  24083.17742104  .00003217  00000-0  21999-3 0  9991,2 51988  53.2198  15.6697 0001409 102.3801 257.7349 15.08859066114005,6917.822,95.436,540.662,538.712,0.0
51988.0,STARLINK-3640,PAYLOAD,2024-03-24 04:06:15,15.08860834,0.000148,53.2183,11.208,130.1003,230.0119,0.00028761,4.295e-05,0.0,0 STARLINK-3640,1 51988U 22025AJ  24084.17101839  .00004295  00000-0  28761-3 0  9997,2 51988  53.2183  11.2080 0001480 130.1003 230.0119 15.08860834114159,6917.817,95.436,540.706,538.658,0.0
51988.0,STARLINK-3640,PAYLOAD,2024-03-24 12:03:12,15.08834197,0.0001282,53.2201,9.7188,92.262,267.8519,-9.6743e-05,-1.827e-05,0.0,0 STARLINK-3640,1 51988U 22025AJ  24084.50223073 -.00001827  00000-0 -96743-4 0  9995,2 51988  53.2201   9.7188 0001282  92.2620 267.8519 15.08834197114205,6917.898,95.438,540.65,538.876,0.0
51988.0,STARLINK-3640,PAYLOAD,2024-03-24 23:10:54,15.0883543,0.0001515,53.2194,7.6379,93.2606,266.8559,1.0473e-05,-1.21e-06,0.0,0 STARLINK-3640,1 51988U 22025AJ  24084.96591433 -.00000121  00000-0  10473-4 0  9994,2 51988  53.2194   7.6379 0001515  93.2606 266.8559 15.08835430113167,6917.894,95.438,540.807,538.711,0.0
51988.0,STARLINK-3640,PAYLOAD,2024-03-25 03:57:03,15.08848291,0.000158,53.2192,6.745,104.621,255.4958,0.00047574,7.293e-05,0.0,0 STARLINK-3640,1 51988U 22025AJ  24085.16462907  .00007293  00000-0  47574-3 0  9997,2 51988  53.2192   6.7450 0001580 104.6210 255.4958 15.08848291114308,6917.855,95.437,540.813,538.627,0.0
51988.0,STARLINK-3640,PAYLOAD,2024-03-25 11:54:00,15.08837658,0.0001951,53.2205,5.2578,83.465,276.6564,0.00015607,2.196e-05,0.0,0 STARLINK-3640,1 51988U 22025AJ  24085.49583659  .00002196  00000-0  15607-3 0  9990,2 51988  53.2205   5.2578 0001951  83.4650 276.6564 15.08837658114350,6917.888,95.438,541.102,538.403,0.0
51988.0,STARLINK-3640,PAYLOAD,2024-03-25 23:01:42,15.08844606,0.0001359,53.2186,3.1769,90.9499,269.1649,0.00021362,3.114e-05,0.0,0 STARLINK-3640,1 51988U 22025AJ  24085.95951520  .00003114  00000-0  21362-3 0  9993,2 51988  53.2186   3.1769 0001359  90.9499 269.1649 15.08844606113310,6917.866,95.437,540.671,538.791,0.0
51988.0,STARLINK-3640,PAYLOAD,2024-03-26 11:44:47,15.08844106,0.0001402,53.2191,0.7956,106.7593,253.3553,0.00014511,2.022e-05,0.0,0 STARLINK-3640,1 51988U 22025AJ  24086.48943405  .00002022  00000-0  14511-3 0  9990,2 51988  53.2191   0.7956 0001402 106.7593 253.3553 15.08844106113399,6917.868,95.437,540.703,538.763,0.0
51988.0,STARLINK-3640,PAYLOAD,2024-03-26 22:52:29,15.0884359,0.0001924,53.2193,358.7154,98.8224,261.2986,0.00016629,2.36e-05,0.0,0 STARLINK-3640,1 51988U 22025AJ  24086.95311622  .00002360  00000-0  16629-3 0  9999,2 51988  53.2193 358.7154 0001924  98.8224 261.2986 15.08843590113460,6917.869,95.437,541.065,538.403,0.0
51988.0,STARLINK-3640,PAYLOAD,2024-03-27 00:27:52,15.08844907,0.0001796,53.2191,358.4179,104.4473,255.6719,0.00013766,1.904e-05,0.0,0 STARLINK-3640,1 51988U 22025AJ  24087.01935515  .00001904  00000-0  13766-3 0  9992,2 51988  53.2191 358.4179 0001796 104.4473 255.6719 15.08844907114587,6917.865,95.437,540.973,538.488,0.0
51988.0,STARLINK-3640,PAYLOAD,2024-03-27 11:35:34,15.08834855,0.0001788,53.2182,356.3401,87.34,272.7797,-1.0988e-05,-4.63e-06,0.0,0 STARLINK-3640,1 51988U 22025AJ  24087.48304065 -.00000463  00000-0 -10988-4 0  9998,2 51988  53.2182 356.3401 0001788  87.3400 272.7797 15.08834855114657,6917.896,95.438,540.998,538.524,0.0
